STARLINK-30116          
1 57465U 23107J   26068.15144248 -.00001702  00000+0 -53767-4 0  9994
2 57465  43.0029 339.2408 0001961 277.6766  82.3863 15.26729842145066
TRANSPORTER-12 OBJECT BT
1 62674U 25009BT  26068.71416991  .00013824  00000+0  51029-3 0  9998
2 62674  97.4094 151.5992 0003682 313.5044  46.5889 15.27872239121360
